    CK20V020  2023 05  8.4712  2.227572  1.000875  162.3941  212.3710  131.6116  20240104   4.9  4.0  C/2020 V2 (ZTF)                                          MPEC 2023-Y97
    PK20V030  2021 02 11.2396  6.232459  0.257474  249.4905  198.2548   23.0320  20240104   8.3  4.0  P/2020 V3 (PANSTARRS)                                    MPEC 2023-D72
    PK20V040  2021 07 18.9272  5.149115  0.450978  257.0858  203.4833   14.2440  20240104   9.0  4.0  P/2020 V4 (Rankin)                                       MPEC 2023-KD6
    PK20W010  2020 04  9.9219  5.297315  0.266258  265.1807  124.3948   10.7826  20240104  10.0  4.0  P/2020 W1 (Rankin)                                       MPEC 2021-BE3
    CK20W050  2020 11 30.3757  3.366128  1.001348   24.5183   75.4751   88.6081  20240104  15.0  4.0  C/2020 W5 (Lemmon)                                       MPEC 2021-BE3
    PK20W05J  2021 06 30.0965  4.983261  0.171543  338.0847  177.8011   22.2909  20240104   8.5  4.0  P/2020 WJ5 (Lemmon)                                      MPEC 2023-VM5
    PK20X010  2020 07 20.9766  2.877042  0.365258  323.4368   56.0447   31.6878  20240104  13.0  4.0  P/2020 X1 (ATLAS)                                        MPEC 2021-P47
    CK20X020  2020 11 16.4630  3.827413  0.767783  347.4271  105.3950   18.1845  20240104  10.6  4.0  C/2020 X2 (ATLAS)                                        MPEC 2023-VM5
    CK20X040  2020 11 15.9925  5.223844  0.871880  140.3172  161.9094   80.6262  20240104   9.0  4.0  C/2020 X4 (Leonard)                                      MPEC 2021-S45
    CK20Y020  2022 06 18.5426  3.143680  0.999021  266.4210   26.5319  101.2162  20240104   6.5  4.0  C/2020 Y2 (ATLAS)                                        MPEC 2023-Y97
    CK20Y030  2020 12  3.2708  1.994003  0.985782  341.9069  191.4265   83.1060  20240104  13.5  4.0  C/2020 Y3 (ATLAS)                                        MPEC 2021-R75
    CK21A010  2022 01  3.3382  0.616108  1.000087  225.1352  255.9060  132.7384  20240104   8.5  4.0  C/2021 A1 (Leonard)                                      MPEC 2023-CD7
    CK21A020  2021 01 22.2755  1.412381  0.993840  338.7692  125.1549  107.0053  20240104  13.5  4.0  C/2021 A2 (NEOWISE)                                      MPEC 2022-F14
    CK21A040  2021 03 19.5971  1.148252  0.972911  204.7183  307.1058  111.5582  20240104  16.0  4.0  C/2021 A4 (NEOWISE)                                      MPEC 2022-ED3
    PK21A050  2026 03 10.5309  2.621156  0.139921   61.3529  328.8286   18.1855  20240104  15.0  4.0  P/2021 A5 (PANSTARRS)                                    MPEC 2021-BE3
    CK21A060  2021 05  2.9624  7.924891  0.999104  351.6153  164.0644   75.5912  20240104   7.0  4.0  C/2021 A6 (PANSTARRS)                                    MPEC 2023-O39
    CK21A070  2021 07 15.1440  1.965385  0.998978  355.9896  154.4789   78.1653  20240104  10.0  4.0  C/2021 A7 (NEOWISE)                                      MPEC 2022-M88
    CK21A090  2023 12  1.9833  7.760073  1.001250  211.4771  314.8346  158.0136  20240104   6.0  4.0  C/2021 A9 (PANSTARRS)                                    MPEC 2023-Y97
    CK21A100  2021 03 15.1197  1.263097  0.985917   82.4896  188.7288  151.9430  20240104  19.0  4.0  C/2021 A10 (NEOWISE)                                     MPEC 2021-N06
    CK21B020  2021 05  4.5382  2.511661  0.993317  334.9965  120.5066   38.0819  20240104  14.0  4.0  C/2021 B2 (PANSTARRS)                                    MPEC 2022-L66
    CK21B030  2021 03 10.1963  2.162078  0.936994  293.5350   67.2769  119.4763  20240104  13.5  4.0  C/2021 B3 (NEOWISE)                                      MPEC 2021-N06
    CK21C010  2020 12  6.6953  3.475149  0.999145  336.1757  186.8848  143.0436  20240104  11.5  4.0  C/2021 C1 (Rankin)                                       MPEC 2023-KD6
    PK21C020  2021 02 23.6181  4.885782  0.487664   78.7009   66.4567   21.9394  20240104  12.0  4.0  P/2021 C2 (PANSTARRS)                                    MPEC 2021-U31
    CK21C030  2021 02 11.8963  2.273556  0.962893  357.0353  181.9135  122.1703  20240104  14.0  4.0  C/2021 C3 (Catalina)                                     MPEC 2021-N06
    CK21C040  2021 01 16.8640  4.498871  0.999751  320.1465  194.2714  132.8496  20240104   9.0  4.0  C/2021 C4 (ATLAS)                                        MPEC 2022-M88
    CK21C050  2023 02 11.0335  3.241888  0.998311  270.9201  323.6755   50.7863  20240104   9.0  4.0  C/2021 C5 (PANSTARRS)                                    MPEC 2023-R20
    CK21C060  2021 11 12.7367  3.278427  0.999665  203.8204  332.3337  164.6063  20240104  12.0  4.0  C/2021 C6 (Lemmon)                                       MPEC 2022-YB4
    CK21D010  2021 02 27.7524  0.903690  0.991074   72.2897  311.2628   31.4152  20240104  13.0  4.0  C/2021 D1 (SWAN)                                         MPEC 2022-F14
    CK21D020  2022 02  3.9514  2.946447  1.001631  125.0295  305.6662   83.7999  20240104   9.0  4.0  C/2021 D2 (ZTF)                                          MPEC 2023-J29
    AK21E020  2020 12 10.1380  2.283209  0.989451  342.3293  190.8073  167.4890  20240104  15.0  2.0  A/2021 E2                                                MPEC 2022-UY9
    CK21E030  2022 06 11.8346  1.777151  1.000645  228.8386  104.4818  112.5371  20240104   8.5  4.0  C/2021 E3 (ZTF)                                          MPEC 2023-J29
    AK21E040  2022 04 25.0768  4.676624  0.991453   48.2643  171.1655  116.3623  20240104  13.5 22.0  A/2021 E4                                                MPEC 2023-SQ0
    CK21F010  2022 04  6.8085  0.996866  0.995867  146.8644  203.4703  107.3179  20240104  13.5  4.0  C/2021 F1 (Lemmon-PANSTARRS)                             MPEC 2022-QD9
    CK21G010  2021 07 21.6250  3.424226  0.953098  107.4454  270.6985  131.5473  20240104  14.0  4.0  C/2021 G1 (Leonard)                                      MPEC 2021-J72
    CK21G020  2024 09  9.3669  4.982189  0.999796  343.2975  221.0938   48.4748  20240104   5.5  4.0  C/2021 G2 (ATLAS)                                        MPEC 2023-Y97
    CK21G030  2021 10 17.9773  5.179985  0.999723   10.5844  147.3910  102.8703  20240104  10.5  4.0  C/2021 G3 (PANSTARRS)                                    MPEC 2022-X67
    PK21H00S  2021 08  5.9768  0.798524  0.809627   46.1371  262.3694   12.1578  20240104  22.0  4.0  P/2021 HS (PANSTARRS)                                    MPEC 2021-Y10
    CK21J010  2021 02 19.3747  1.739382  0.933944  147.2954   88.3968   92.7164  20240104  15.5  4.0  C/2021 J1 (Maury-Attard)                                 MPEC 2022-C56
    CK21J020  2021 09 21.8726  4.703221  0.959454  171.9759   23.3334  156.2129  20240104  12.0  4.0  C/2021 J2 (PANSTARRS)                                    MPEC 2023-XP6
    PK21J030  2019 07  2.6439  4.914101  0.448995  125.9014  111.1201   14.5268  20240104   7.0  4.0  P/2021 J3 (ATLAS)                                        MPEC 2023-VM5
    CK21K010  2021 05  3.8853  2.499975  0.802425  184.2734  140.9131   16.2741  20240104  11.0  4.0  C/2021 K1 (ATLAS)                                        MPEC 2022-O08
    CK21K020  2021 09  9.7268  5.469038  1.000963  343.3494  282.3126  100.8583  20240104   8.0  4.0  C/2021 K2 (MASTER)                                       MPEC 2022-O01
    CK21K030  2022 02  3.9474  5.232008  1.004404  182.0525  114.5739  134.7755  20240104  10.0  4.0  C/2021 K3 (Catalina)                                     MPEC 2022-L66
    PK21L020  2021 07 23.9600  1.939787  0.520888   51.5045  266.6552   21.0657  20240104  17.0  4.0  P/2021 L2 (Leonard)                                      MPEC 2021-W31
    CK21L030  2022 02 14.4883  8.458391  1.004224   91.6251  344.9901   78.5693  20240104  10.1  4.0  C/2021 L3 (Borisov)                                      MPEC 2023-M14
    PK21N010  2026 07 27.7638  0.964757  0.676095   21.2373  301.1544   11.4917  20240104  19.0  4.0  P/2021 N1 (ZTF)                                          MPEC 2022-TA0
    PK21N020  2021 11 14.1833  3.799825  0.452607  177.5189  221.7319   13.0612  20240104   9.5  4.0  P/2021 N2 (Fuls)                                         MPEC 2023-W26
    CK21N030  2020 08 18.7058  5.717246  0.961263  304.7351  337.4980   26.7455  20240104   8.5  4.0  C/2021 N3 (PANSTARRS)                                    MPEC 2022-YB4
    CK21O010  2021 08 14.1816  0.784334  0.999699   74.3967   41.5965   27.5962  20240104  10.5  4.0  C/2021 O1 (Nishimura)                                    MPEC 2022-A21
    CK21O030  2022 04 21.0855  0.286395  1.000046  299.9564  188.9840   56.7970  20240104  10.5  4.0  C/2021 O3 (PANSTARRS)                                    MPEC 2022-L66
    CK21P010  2022 06  2.5126  4.375879  0.998120   40.4693  359.7010   51.6387  20240104  11.0  4.0  C/2021 P1 (PANSTARRS)                                    MPEC 2022-CN4
    CK21P020  2023 01 22.9189  5.069331  0.998703   76.7133   32.0812  150.0632  20240104   9.0  4.0  C/2021 P2 (PANSTARRS)                                    MPEC 2023-R20
    PK21P030  2021 05 29.8305  2.917452  0.338807  334.0912  358.2427   27.1613  20240104  14.0  4.0  P/2021 P3 (PANSTARRS)                                    MPEC 2021-W31
    CK21P040  2022 07 30.3393  1.079818  0.996401  175.7979  348.0765   56.3188  20240104   9.5  4.0  C/2021 P4 (ATLAS)                                        MPEC 2023-A50
    PK21P20E  2021 06  6.6652  1.235867  0.670077  210.4712   99.6282   20.0033  20240104  17.0  4.0  P/2021 PE20 (ATLAS)                                      MPEC 2023-E68
    CK21Q030  2022 01 26.3021  5.205355  0.931225  114.1121  307.9152   77.7460  20240104   8.0  4.0  C/2021 Q3 (ATLAS)                                        MPEC 2023-FK0
    CK21Q040  2023 06 11.1962  7.564980  1.003000  147.0504  183.3296   71.4802  20240104   6.0  4.0  C/2021 Q4 (Fuls)                                         MPEC 2023-Y97
